STARLINK-35964          
1 66796U 25278F   25345.16668980 -.01425758  66551-3 -19618-2 0  9998
2 66796  42.9962 261.2585 0001735 264.7208 353.8333 16.05275768  2548
STARLINK-36099          
1 66797U 25278G   25345.16668980 -.01093923  00000+0 -37803-2 0  9993
2 66797  42.9983 261.8426 0002002 272.3319 117.0052 15.90954508  2769
STARLINK-36041          
1 66798U 25278H   25345.16668980 -.01092114  00000+0 -37661-2 0  9997
2 66798  42.9983 261.8377 0001984 272.1398 119.1170 15.90991301  2540
STARLINK-36044          
1 66799U 25278J   25345.16668980 -.01099773  00000+0 -37873-2 0  9991
2 66799  42.9982 261.8322 0001953 273.8432 119.5907 15.91035192  2701
STARLINK-35996          
1 66800U 25278K   25345.16668980 -.01253682  45297-3 -38186-2 0  9994
2 66800  42.9982 261.8210 0002019 273.5379 124.2337 15.91120744  2495
STARLINK-36080          
1 66801U 25278L   25345.16668980 -.01334629  50903-3 -40207-2 0  9993
2 66801  42.9980 261.7932 0001993 275.1550 133.4583 15.91346589  2709
STARLINK-35604          
1 66802U 25278M   25345.16668980 -.01237233  44195-3 -37773-2 0  9997
2 66802  42.9983 261.8272 0001951 273.7511 121.6495 15.91072643  2704
STARLINK-35565          
1 66803U 25278N   25345.16668980 -.01256954  45530-3 -38208-2 0  9997
2 66803  42.9983 261.8162 0001968 272.7763 126.9659 15.91160673  2799
STARLINK-36038          
1 66804U 25278P   25345.16668980 -.01277977  46956-3 -38754-2 0  9995
2 66804  42.9985 261.8101 0001959 275.5368 126.6736 15.91210553  2704
STARLINK-36049          
1 66805U 25278Q   25345.16668980 -.01310052  49177-3 -39556-2 0  9997
2 66805  42.9982 261.7992 0001952 276.9473 129.4957 15.91299062  2702
STARLINK-36069          
1 66806U 25278R   25345.16668980 -.01290403  47814-3 -39049-2 0  9998
2 66806  42.9984 261.8054 0001948 276.5211 127.5319 15.91253178  2491
STARLINK-36000          
1 66807U 25278S   25345.16668980 -.01365575  53110-3 -41045-2 0  9997
2 66807  42.9983 261.7883 0001991 275.1850 135.5999 15.91396371  2768
