CCSDS_OMM_VERS = 2.0
CREATION_DATE  = 
ORIGINATOR     = 

OBJECT_NAME    = STARLINK-35964
OBJECT_ID      = 2025-278F
CENTER_NAME    = EARTH
REF_FRAME      = TEME
TIME_SYSTEM    = UTC
MEAN_ELEMENT_THEORY = SGP/SGP4

EPOCH          = 2025-12-11T04:00:01.998720
MEAN_MOTION    = 16.05275768
ECCENTRICITY   = .0001735
INCLINATION    = 42.9962
RA_OF_ASC_NODE = 261.2585
ARG_OF_PERICENTER = 264.7208
MEAN_ANOMALY   = 353.8333

EPHEMERIS_TYPE = 0
CLASSIFICATION_TYPE = U
NORAD_CAT_ID   = 66796
ELEMENT_SET_NO = 999
REV_AT_EPOCH   = 254
BSTAR          = -.19618E-2
MEAN_MOTION_DOT = -.1425758E-1
MEAN_MOTION_DDOT = .66551E-3

CCSDS_OMM_VERS = 2.0
CREATION_DATE  = 
ORIGINATOR     = 

OBJECT_NAME    = STARLINK-36099
OBJECT_ID      = 2025-278G
CENTER_NAME    = EARTH
REF_FRAME      = TEME
TIME_SYSTEM    = UTC
MEAN_ELEMENT_THEORY = SGP/SGP4

EPOCH          = 2025-12-11T04:00:01.998720
MEAN_MOTION    = 15.90954508
ECCENTRICITY   = .0002002
INCLINATION    = 42.9983
RA_OF_ASC_NODE = 261.8426
ARG_OF_PERICENTER = 272.3319
MEAN_ANOMALY   = 117.0052

EPHEMERIS_TYPE = 0
CLASSIFICATION_TYPE = U
NORAD_CAT_ID   = 66797
ELEMENT_SET_NO = 999
REV_AT_EPOCH   = 276
BSTAR          = -.37803E-2
MEAN_MOTION_DOT = -.1093923E-1
MEAN_MOTION_DDOT = 0

CCSDS_OMM_VERS = 2.0
CREATION_DATE  = 
ORIGINATOR     = 

OBJECT_NAME    = STARLINK-36041
OBJECT_ID      = 2025-278H
CENTER_NAME    = EARTH
REF_FRAME      = TEME
TIME_SYSTEM    = UTC
MEAN_ELEMENT_THEORY = SGP/SGP4

EPOCH          = 2025-12-11T04:00:01.998720
MEAN_MOTION    = 15.90991301
ECCENTRICITY   = .0001984
INCLINATION    = 42.9983
RA_OF_ASC_NODE = 261.8377
ARG_OF_PERICENTER = 272.1398
MEAN_ANOMALY   = 119.1170

EPHEMERIS_TYPE = 0
CLASSIFICATION_TYPE = U
NORAD_CAT_ID   = 66798
ELEMENT_SET_NO = 999
REV_AT_EPOCH   = 254
BSTAR          = -.37661E-2
MEAN_MOTION_DOT = -.1092114E-1
MEAN_MOTION_DDOT = 0

CCSDS_OMM_VERS = 2.0
CREATION_DATE  = 
ORIGINATOR     = 

OBJECT_NAME    = STARLINK-36044
OBJECT_ID      = 2025-278J
CENTER_NAME    = EARTH
REF_FRAME      = TEME
TIME_SYSTEM    = UTC
MEAN_ELEMENT_THEORY = SGP/SGP4

EPOCH          = 2025-12-11T04:00:01.998720
MEAN_MOTION    = 15.91035192
ECCENTRICITY   = .0001953
INCLINATION    = 42.9982
RA_OF_ASC_NODE = 261.8322
ARG_OF_PERICENTER = 273.8432
MEAN_ANOMALY   = 119.5907

EPHEMERIS_TYPE = 0
CLASSIFICATION_TYPE = U
NORAD_CAT_ID   = 66799
ELEMENT_SET_NO = 999
REV_AT_EPOCH   = 270
BSTAR          = -.37873E-2
MEAN_MOTION_DOT = -.1099773E-1
MEAN_MOTION_DDOT = 0

CCSDS_OMM_VERS = 2.0
CREATION_DATE  = 
ORIGINATOR     = 

OBJECT_NAME    = STARLINK-35996
OBJECT_ID      = 2025-278K
CENTER_NAME    = EARTH
REF_FRAME      = TEME
TIME_SYSTEM    = UTC
MEAN_ELEMENT_THEORY = SGP/SGP4

EPOCH          = 2025-12-11T04:00:01.998720
MEAN_MOTION    = 15.91120744
ECCENTRICITY   = .0002019
INCLINATION    = 42.9982
RA_OF_ASC_NODE = 261.8210
ARG_OF_PERICENTER = 273.5379
MEAN_ANOMALY   = 124.2337

EPHEMERIS_TYPE = 0
CLASSIFICATION_TYPE = U
NORAD_CAT_ID   = 66800
ELEMENT_SET_NO = 999
REV_AT_EPOCH   = 249
BSTAR          = -.38186E-2
MEAN_MOTION_DOT = -.1253682E-1
MEAN_MOTION_DDOT = .45297E-3

CCSDS_OMM_VERS = 2.0
CREATION_DATE  = 
ORIGINATOR     = 

OBJECT_NAME    = STARLINK-36080
OBJECT_ID      = 2025-278L
CENTER_NAME    = EARTH
REF_FRAME      = TEME
TIME_SYSTEM    = UTC
MEAN_ELEMENT_THEORY = SGP/SGP4

EPOCH          = 2025-12-11T04:00:01.998720
MEAN_MOTION    = 15.91346589
ECCENTRICITY   = .0001993
INCLINATION    = 42.9980
RA_OF_ASC_NODE = 261.7932
ARG_OF_PERICENTER = 275.1550
MEAN_ANOMALY   = 133.4583

EPHEMERIS_TYPE = 0
CLASSIFICATION_TYPE = U
NORAD_CAT_ID   = 66801
ELEMENT_SET_NO = 999
REV_AT_EPOCH   = 270
BSTAR          = -.40207E-2
MEAN_MOTION_DOT = -.1334629E-1
MEAN_MOTION_DDOT = .50903E-3

CCSDS_OMM_VERS = 2.0
CREATION_DATE  = 
ORIGINATOR     = 

OBJECT_NAME    = STARLINK-35604
OBJECT_ID      = 2025-278M
CENTER_NAME    = EARTH
REF_FRAME      = TEME
TIME_SYSTEM    = UTC
MEAN_ELEMENT_THEORY = SGP/SGP4

EPOCH          = 2025-12-11T04:00:01.998720
MEAN_MOTION    = 15.91072643
ECCENTRICITY   = .0001951
INCLINATION    = 42.9983
RA_OF_ASC_NODE = 261.8272
ARG_OF_PERICENTER = 273.7511
MEAN_ANOMALY   = 121.6495

EPHEMERIS_TYPE = 0
CLASSIFICATION_TYPE = U
NORAD_CAT_ID   = 66802
ELEMENT_SET_NO = 999
REV_AT_EPOCH   = 270
BSTAR          = -.37773E-2
MEAN_MOTION_DOT = -.1237233E-1
MEAN_MOTION_DDOT = .44195E-3

CCSDS_OMM_VERS = 2.0
CREATION_DATE  = 
ORIGINATOR     = 

OBJECT_NAME    = STARLINK-35565
OBJECT_ID      = 2025-278N
CENTER_NAME    = EARTH
REF_FRAME      = TEME
TIME_SYSTEM    = UTC
MEAN_ELEMENT_THEORY = SGP/SGP4

EPOCH          = 2025-12-11T04:00:01.998720
MEAN_MOTION    = 15.91160673
ECCENTRICITY   = .0001968
INCLINATION    = 42.9983
RA_OF_ASC_NODE = 261.8162
ARG_OF_PERICENTER = 272.7763
MEAN_ANOMALY   = 126.9659

EPHEMERIS_TYPE = 0
CLASSIFICATION_TYPE = U
NORAD_CAT_ID   = 66803
ELEMENT_SET_NO = 999
REV_AT_EPOCH   = 279
BSTAR          = -.38208E-2
MEAN_MOTION_DOT = -.1256954E-1
MEAN_MOTION_DDOT = .4553E-3

CCSDS_OMM_VERS = 2.0
CREATION_DATE  = 
ORIGINATOR     = 

OBJECT_NAME    = STARLINK-36038
OBJECT_ID      = 2025-278P
CENTER_NAME    = EARTH
REF_FRAME      = TEME
TIME_SYSTEM    = UTC
MEAN_ELEMENT_THEORY = SGP/SGP4

EPOCH          = 2025-12-11T04:00:01.998720
MEAN_MOTION    = 15.91210553
ECCENTRICITY   = .0001959
INCLINATION    = 42.9985
RA_OF_ASC_NODE = 261.8101
ARG_OF_PERICENTER = 275.5368
MEAN_ANOMALY   = 126.6736

EPHEMERIS_TYPE = 0
CLASSIFICATION_TYPE = U
NORAD_CAT_ID   = 66804
ELEMENT_SET_NO = 999
REV_AT_EPOCH   = 270
BSTAR          = -.38754E-2
MEAN_MOTION_DOT = -.1277977E-1
MEAN_MOTION_DDOT = .46956E-3

CCSDS_OMM_VERS = 2.0
CREATION_DATE  = 
ORIGINATOR     = 

OBJECT_NAME    = STARLINK-36049
OBJECT_ID      = 2025-278Q
CENTER_NAME    = EARTH
REF_FRAME      = TEME
TIME_SYSTEM    = UTC
MEAN_ELEMENT_THEORY = SGP/SGP4

EPOCH          = 2025-12-11T04:00:01.998720
MEAN_MOTION    = 15.91299062
ECCENTRICITY   = .0001952
INCLINATION    = 42.9982
RA_OF_ASC_NODE = 261.7992
ARG_OF_PERICENTER = 276.9473
MEAN_ANOMALY   = 129.4957

EPHEMERIS_TYPE = 0
CLASSIFICATION_TYPE = U
NORAD_CAT_ID   = 66805
ELEMENT_SET_NO = 999
REV_AT_EPOCH   = 270
BSTAR          = -.39556E-2
MEAN_MOTION_DOT = -.1310052E-1
MEAN_MOTION_DDOT = .49177E-3

CCSDS_OMM_VERS = 2.0
CREATION_DATE  = 
ORIGINATOR     = 

OBJECT_NAME    = STARLINK-36069
OBJECT_ID      = 2025-278R
CENTER_NAME    = EARTH
REF_FRAME      = TEME
TIME_SYSTEM    = UTC
MEAN_ELEMENT_THEORY = SGP/SGP4

EPOCH          = 2025-12-11T04:00:01.998720
MEAN_MOTION    = 15.91253178
ECCENTRICITY   = .0001948
INCLINATION    = 42.9984
RA_OF_ASC_NODE = 261.8054
ARG_OF_PERICENTER = 276.5211
MEAN_ANOMALY   = 127.5319

EPHEMERIS_TYPE = 0
CLASSIFICATION_TYPE = U
NORAD_CAT_ID   = 66806
ELEMENT_SET_NO = 999
REV_AT_EPOCH   = 249
BSTAR          = -.39049E-2
MEAN_MOTION_DOT = -.1290403E-1
MEAN_MOTION_DDOT = .47814E-3

CCSDS_OMM_VERS = 2.0
CREATION_DATE  = 
ORIGINATOR     = 

OBJECT_NAME    = STARLINK-36000
OBJECT_ID      = 2025-278S
CENTER_NAME    = EARTH
REF_FRAME      = TEME
TIME_SYSTEM    = UTC
MEAN_ELEMENT_THEORY = SGP/SGP4

EPOCH          = 2025-12-11T04:00:01.998720
MEAN_MOTION    = 15.91396371
ECCENTRICITY   = .0001991
INCLINATION    = 42.9983
RA_OF_ASC_NODE = 261.7883
ARG_OF_PERICENTER = 275.1850
MEAN_ANOMALY   = 135.5999

EPHEMERIS_TYPE = 0
CLASSIFICATION_TYPE = U
NORAD_CAT_ID   = 66807
ELEMENT_SET_NO = 999
REV_AT_EPOCH   = 276
BSTAR          = -.41045E-2
MEAN_MOTION_DOT = -.1365575E-1
MEAN_MOTION_DDOT = .5311E-3

